[{"OBJECT_NAME":"STARLINK-35604","OBJECT_ID":"2025-278M","EPOCH":"2026-03-09T11:18:15.253632","MEAN_MOTION":15.27595646,"ECCENTRICITY":0.00011141,"INCLINATION":42.9978,"RA_OF_ASC_NODE":115.7689,"ARG_OF_PERICENTER":265.1782,"MEAN_ANOMALY":94.8942,"EPHEMERIS_TYPE":0,"CLASSIFICATION_TYPE":"U","NORAD_CAT_ID":66802,"ELEMENT_SET_NO":999,"REV_AT_EPOCH":1517,"BSTAR":0.00098869913,"MEAN_MOTION_DOT":0.00027058,"MEAN_MOTION_DDOT":0},{"OBJECT_NAME":"CZ-2F DEB","OBJECT_ID":"2022-093H","EPOCH":"2026-03-09T22:47:12.359904","MEAN_MOTION":15.21733628,"ECCENTRICITY":0.00740619,"INCLINATION":50.0217,"RA_OF_ASC_NODE":315.3952,"ARG_OF_PERICENTER":34.8084,"MEAN_ANOMALY":325.7683,"EPHEMERIS_TYPE":0,"CLASSIFICATION_TYPE":"U","NORAD_CAT_ID":53364,"ELEMENT_SET_NO":999,"REV_AT_EPOCH":19831,"BSTAR":0.00048014935,"MEAN_MOTION_DOT":0.00011557,"MEAN_MOTION_DDOT":0}]
